{"type": "FeatureCollection", "features": [ {"type": "Feature", "properties": {"norad_id": 35825, "name": "COSMOS 2251 DEB", "group": "cosmos-2251-debris", "lat": 21.461434818115325, "lon": 162.77200535959693, "alt_km": 1152.3243352419668, "timestamp": "2025-12-04T09:47:37.916433+00:00", "meta": {"OBJECT_NAME": "COSMOS 2251 DEB", "OBJECT_ID": "1993-036ASX", "EPOCH": "2025-11-18T20:38:01.180896", "MEAN_MOTION": 13.70825357, "ECCENTRICITY": 0.03535711, "INCLINATION": 74.1138, "RA_OF_ASC_NODE": 181.8907, "ARG_OF_PERICENTER": 283.1782, "MEAN_ANOMALY": 73.0118, "EPHEMERIS_TYPE": 0, "CLASSIFICATION_TYPE": "U", "NORAD_CAT_ID": 35825, "ELEMENT_SET_NO": 999, "REV_AT_EPOCH": 82181, "BSTAR": 0.0013809564, "MEAN_MOTION_DOT": 1.891e-05, "MEAN_MOTION_DDOT": 0}, "tle": {"line1": "1 35825U 93036ASX 25322.85973589  .00001891  00000+0  13810-2 0  9995", "line2": "2 35825  74.1138 181.8907 0353571 283.1782  73.0118 13.70825357821819"}}, "geometry": {"type": "Point", "coordinates": [162.77200535959693, 21.461434818115325]}}, {"type": "Feature", "properties": {"norad_id": 35829, "name": "COSMOS 2251 DEB", "group": "cosmos-2251-debris", "lat": -9.017095519391344, "lon": 112.52291262309453, "alt_km": 651.4015048864449, "timestamp": "2025-12-04T09:47:37.916443+00:00", "meta": {"OBJECT_NAME": "COSMOS 2251 DEB", "OBJECT_ID": "1993-036ATB", "EPOCH": "2025-12-03T15:56:27.700800", "MEAN_MOTION": 14.75846319, "ECCENTRICITY": 0.00075446, "INCLINATION": 74.0232, "RA_OF_ASC_NODE": 116.5849, "ARG_OF_PERICENTER": 175.4775, "MEAN_ANOMALY": 184.6468, "EPHEMERIS_TYPE": 0, "CLASSIFICATION_TYPE": "U", "NORAD_CAT_ID": 35829, "ELEMENT_SET_NO": 999, "REV_AT_EPOCH": 87641, "BSTAR": 0.0033498788, "MEAN_MOTION_DOT": 0.00023044, "MEAN_MOTION_DDOT": 0}, "tle": {"line1": "1 35829U 93036ATB 25337.66420950  .00023044  00000+0  33499-2 0  9992", "line2": "2 35829  74.0232 116.5849 0007544 175.4775 184.6468 14.75846319876418"}}, "geometry": {"type": "Point", "coordinates": [112.52291262309453, -9.017095519391344]}}, {"type": "Feature", "properties": {"norad_id": 35830, "name": "COSMOS 2251 DEB", "group": "cosmos-2251-debris", "lat": 53.031580627414456, "lon": -55.77688059062916, "alt_km": 892.371682119001, "timestamp": "2025-12-04T09:47:37.916453+00:00", "meta": {"OBJECT_NAME": "COSMOS 2251 DEB", "OBJECT_ID": "1993-036ATC", "EPOCH": "2025-12-03T04:51:39.093120", "MEAN_MOTION": 14.23892585, "ECCENTRICITY": 0.0123282, "INCLINATION": 73.8624, "RA_OF_ASC_NODE": 283.793, "ARG_OF_PERICENTER": 253.8519, "MEAN_ANOMALY": 104.9029, "EPHEMERIS_TYPE": 0, "CLASSIFICATION_TYPE": "U", "NORAD_CAT_ID": 35830, "ELEMENT_SET_NO": 999, "REV_AT_EPOCH": 61128, "BSTAR": 0.0012831, "MEAN_MOTION_DOT": 3.154e-05, "MEAN_MOTION_DDOT": 0}, "tle": {"line1": "1 35830U 93036ATC 25337.20253580  .00003154  00000+0  12831-2 0  9994", "line2": "2 35830  73.8624 283.7930 0123282 253.8519 104.9029 14.23892585611284"}}, "geometry": {"type": "Point", "coordinates": [-55.77688059062916, 53.031580627414456]}}, {"type": "Feature", "properties": {"norad_id": 35834, "name": "COSMOS 2251 DEB", "group": "cosmos-2251-debris", "lat": -42.55311578464591, "lon": 154.7124766823244, "alt_km": 872.5508817648679, "timestamp": "2025-12-04T09:47:37.916463+00:00", "meta": {"OBJECT_NAME": "COSMOS 2251 DEB", "OBJECT_ID": "1993-036ATG", "EPOCH": "2025-12-03T09:39:35.307936", "MEAN_MOTION": 14.12966423, "ECCENTRICITY": 0.01090748, "INCLINATION": 73.9307, "RA_OF_ASC_NODE": 321.1574, "ARG_OF_PERICENTER": 123.5318, "MEAN_ANOMALY": 26.7998, "EPHEMERIS_TYPE": 0, "CLASSIFICATION_TYPE": "U", "NORAD_CAT_ID": 35834, "ELEMENT_SET_NO": 999, "REV_AT_EPOCH": 66131, "BSTAR": 0.00019431866, "MEAN_MOTION_DOT": 3.59e-06, "MEAN_MOTION_DDOT": 0}, "tle": {"line1": "1 35834U 93036ATG 25337.40249199  .00000359  00000+0  19432-3 0  9990", "line2": "2 35834  73.9307 321.1574 0109074 123.5318  26.7998 14.12966423661317"}}, "geometry": {"type": "Point", "coordinates": [154.7124766823244, -42.55311578464591]}}, {"type": "Feature", "properties": {"norad_id": 35835, "name": "COSMOS 2251 DEB", "group": "cosmos-2251-debris", "lat": -20.70036931380682, "lon": -83.75053958538068, "alt_km": 944.0199368760877, "timestamp": "2025-12-04T09:47:37.916474+00:00", "meta": {"OBJECT_NAME": "COSMOS 2251 DEB", "OBJECT_ID": "1993-036ATH", "EPOCH": "2025-11-23T15:11:23.439552", "MEAN_MOTION": 13.82767918, "ECCENTRICITY": 0.02888493, "INCLINATION": 74.0623, "RA_OF_ASC_NODE": 300.5555, "ARG_OF_PERICENTER": 86.7647, "MEAN_ANOMALY": 276.6477, "EPHEMERIS_TYPE": 0, "CLASSIFICATION_TYPE": "U", "NORAD_CAT_ID": 35835, "ELEMENT_SET_NO": 999, "REV_AT_EPOCH": 61435, "BSTAR": 0.00097699609, "MEAN_MOTION_DOT": 1.444e-05, "MEAN_MOTION_DDOT": 0}, "tle": {"line1": "1 35835U 93036ATH 25327.63291018  .00001444  00000+0  97700-3 0  9992", "line2": "2 35835  74.0623 300.5555 0288849  86.7647 276.6477 13.82767918614358"}}, "geometry": {"type": "Point", "coordinates": [-83.75053958538068, -20.70036931380682]}}, {"type": "Feature", "properties": {"norad_id": 35836, "name": "COSMOS 2251 DEB", "group": "cosmos-2251-debris", "lat": 72.80096555937229, "lon": -103.20841116207787, "alt_km": 668.591300594011, "timestamp": "2025-12-04T09:47:37.916484+00:00", "meta": {"OBJECT_NAME": "COSMOS 2251 DEB", "OBJECT_ID": "1993-036ATJ", "EPOCH": "2025-12-03T07:17:31.835616", "MEAN_MOTION": 14.70639126, "ECCENTRICITY": 0.0025001, "INCLINATION": 74.0317, "RA_OF_ASC_NODE": 191.2565, "ARG_OF_PERICENTER": 251.0331, "MEAN_ANOMALY": 108.8131, "EPHEMERIS_TYPE": 0, "CLASSIFICATION_TYPE": "U", "NORAD_CAT_ID": 35836, "ELEMENT_SET_NO": 999, "REV_AT_EPOCH": 63381, "BSTAR": 0.0020272, "MEAN_MOTION_DOT": 0.00012386, "MEAN_MOTION_DDOT": 0}, "tle": {"line1": "1 35836U 93036ATJ 25337.30384069  .00012386  00000+0  20272-2 0  9993", "line2": "2 35836  74.0317 191.2565 0025001 251.0331 108.8131 14.70639126633813"}}, "geometry": {"type": "Point", "coordinates": [-103.20841116207787, 72.80096555937229]}}, {"type": "Feature", "properties": {"norad_id": 35837, "name": "COSMOS 2251 DEB", "group": "cosmos-2251-debris", "lat": -14.815107439227978, "lon": -142.94467173282214, "alt_km": 1317.5764702532033, "timestamp": "2025-12-04T09:47:37.916495+00:00", "meta": {"OBJECT_NAME": "COSMOS 2251 DEB", "OBJECT_ID": "1993-036ATK", "EPOCH": "2025-12-01T23:51:57.289248", "MEAN_MOTION": 13.6337538, "ECCENTRICITY": 0.04221684, "INCLINATION": 73.722, "RA_OF_ASC_NODE": 225.5014, "ARG_OF_PERICENTER": 147.9905, "MEAN_ANOMALY": 236.1342, "EPHEMERIS_TYPE": 0, "CLASSIFICATION_TYPE": "U", "NORAD_CAT_ID": 35837, "ELEMENT_SET_NO": 999, "REV_AT_EPOCH": 57830, "BSTAR": 0.0015598764, "MEAN_MOTION_DOT": 2.227e-05, "MEAN_MOTION_DDOT": 0}, "tle": {"line1": "1 35837U 93036ATK 25335.99441307  .00002227  00000+0  15599-2 0  9995", "line2": "2 35837  73.7220 225.5014 0422168 147.9905 236.1342 13.63375380578309"}}, "geometry": {"type": "Point", "coordinates": [-142.94467173282214, -14.815107439227978]}}, {"type": "Feature", "properties": {"norad_id": 35839, "name": "COSMOS 2251 DEB", "group": "cosmos-2251-debris", "lat": -23.892908618844817, "lon": 168.7806382027408, "alt_km": 436.80320953478986, "timestamp": "2025-12-04T09:47:37.916505+00:00", "meta": {"OBJECT_NAME": "COSMOS 2251 DEB", "OBJECT_ID": "1993-036ATM", "EPOCH": "2025-12-02T18:04:00.315552", "MEAN_MOTION": 15.45031153, "ECCENTRICITY": 0.00040713, "INCLINATION": 74.215, "RA_OF_ASC_NODE": 345.1465, "ARG_OF_PERICENTER": 349.5687, "MEAN_ANOMALY": 10.544, "EPHEMERIS_TYPE": 0, "CLASSIFICATION_TYPE": "U", "NORAD_CAT_ID": 35839, "ELEMENT_SET_NO": 999, "REV_AT_EPOCH": 88413, "BSTAR": 0.0040209736, "MEAN_MOTION_DOT": 0.00194741, "MEAN_MOTION_DDOT": 0}, "tle": {"line1": "1 35839U 93036ATM 25336.75278143  .00194741  00000+0  40210-2 0  9999", "line2": "2 35839  74.2150 345.1465 0004071 349.5687  10.5440 15.45031153884137"}}, "geometry": {"type": "Point", "coordinates": [168.7806382027408, -23.892908618844817]}}, {"type": "Feature", "properties": {"norad_id": 35840, "name": "COSMOS 2251 DEB", "group": "cosmos-2251-debris", "lat": 72.38042822807498, "lon": -121.20146970610855, "alt_km": 676.0933238093594, "timestamp": "2025-12-04T09:47:37.916515+00:00", "meta": {"OBJECT_NAME": "COSMOS 2251 DEB", "OBJECT_ID": "1993-036ATN", "EPOCH": "2025-12-03T06:41:48.528096", "MEAN_MOTION": 14.37668767, "ECCENTRICITY": 0.0116177, "INCLINATION": 73.9299, "RA_OF_ASC_NODE": 175.711, "ARG_OF_PERICENTER": 80.5155, "MEAN_ANOMALY": 280.9106, "EPHEMERIS_TYPE": 0, "CLASSIFICATION_TYPE": "U", "NORAD_CAT_ID": 35840, "ELEMENT_SET_NO": 999, "REV_AT_EPOCH": 85155, "BSTAR": 0.0020521, "MEAN_MOTION_DOT": 6.645e-05, "MEAN_MOTION_DDOT": 0}, "tle": {"line1": "1 35840U 93036ATN 25337.27903389  .00006645  00000+0  20521-2 0  9994", "line2": "2 35840  73.9299 175.7110 0116177  80.5155 280.9106 14.37668767851555"}}, "geometry": {"type": "Point", "coordinates": [-121.20146970610855, 72.38042822807498]}}, {"type": "Feature", "properties": {"norad_id": 35883, "name": "COSMOS 2251 DEB", "group": "cosmos-2251-debris", "lat": 54.5679447829975, "lon": 109.44705400524333, "alt_km": 773.9227776568187, "timestamp": "2025-12-04T09:47:37.916525+00:00", "meta": {"OBJECT_NAME": "COSMOS 2251 DEB", "OBJECT_ID": "1993-036ATW", "EPOCH": "2025-11-29T02:53:29.744160", "MEAN_MOTION": 14.50541303, "ECCENTRICITY": 0.00841977, "INCLINATION": 74.0237, "RA_OF_ASC_NODE": 95.6459, "ARG_OF_PERICENTER": 227.8885, "MEAN_ANOMALY": 309.997, "EPHEMERIS_TYPE": 0, "CLASSIFICATION_TYPE": "U", "NORAD_CAT_ID": 35883, "ELEMENT_SET_NO": 999, "REV_AT_EPOCH": 62188, "BSTAR": 0.00041574036, "MEAN_MOTION_DOT": 1.674e-05, "MEAN_MOTION_DDOT": 0}, "tle": {"line1": "1 35883U 93036ATW 25333.12048315  .00001674  00000+0  41574-3 0  9999", "line2": "2 35883  74.0237  95.6459 0084197 227.8885 309.9970 14.50541303621887"}}, "geometry": {"type": "Point", "coordinates": [109.44705400524333, 54.5679447829975]}}]}